NUSHSAT1                
1 63211U 25052B   26068.64700493  .00023034  00000+0  74857-3 0  9997
2 63211  97.4095 325.7239 0005501  84.7512 275.4357 15.31903202 54882
STARLINK-35610          
1 66428U 25259G   26068.96000743  .00027712  00000+0  10125-2 0  9999
2 66428  43.0029 272.7341 0002396 274.9006  85.1572 15.27587366 19536
